[{"OBJECT_NAME":"STARLINK-5559","OBJECT_ID":"2023-058U","EPOCH":"2026-03-09T23:30:37.297440","MEAN_MOTION":15.05646209,"ECCENTRICITY":0.00021088,"INCLINATION":97.6048,"RA_OF_ASC_NODE":71.5561,"ARG_OF_PERICENTER":85.6902,"MEAN_ANOMALY":274.4565,"EPHEMERIS_TYPE":0,"CLASSIFICATION_TYPE":"U","NORAD_CAT_ID":56335,"ELEMENT_SET_NO":999,"REV_AT_EPOCH":15824,"BSTAR":2.3821827e-5,"MEAN_MOTION_DOT":2.83e-6,"MEAN_MOTION_DDOT":0},{"OBJECT_NAME":"IRIDIUM 33 DEB","OBJECT_ID":"1997-051QE","EPOCH":"2026-03-07T09:35:18.798432","MEAN_MOTION":15.07266806,"ECCENTRICITY":0.0013423,"INCLINATION":86.3519,"RA_OF_ASC_NODE":312.8742,"ARG_OF_PERICENTER":171.2899,"MEAN_ANOMALY":188.8573,"EPHEMERIS_TYPE":0,"CLASSIFICATION_TYPE":"U","NORAD_CAT_ID":35484,"ELEMENT_SET_NO":999,"REV_AT_EPOCH":63287,"BSTAR":0.0040001,"MEAN_MOTION_DOT":0.00060878,"MEAN_MOTION_DDOT":0}]
